CCSDS_OMM_VERS = 2.0
CREATION_DATE  = 
ORIGINATOR     = 

OBJECT_NAME    = STARLINK-35444
OBJECT_ID      = 2025-263AC
CENTER_NAME    = EARTH
REF_FRAME      = TEME
TIME_SYSTEM    = UTC
MEAN_ELEMENT_THEORY = SGP/SGP4

EPOCH          = 2025-12-04T04:00:03.000096
MEAN_MOTION    = 15.68543981
ECCENTRICITY   = .0001391
INCLINATION    = 42.9991
RA_OF_ASC_NODE = 175.5062
ARG_OF_PERICENTER = 273.0484
MEAN_ANOMALY   = 253.2891

EPHEMERIS_TYPE = 0
CLASSIFICATION_TYPE = U
NORAD_CAT_ID   = 66511
ELEMENT_SET_NO = 999
REV_AT_EPOCH   = 425
BSTAR          = -.19111E-1
MEAN_MOTION_DOT = -.1967949E-1
MEAN_MOTION_DDOT = 0

CCSDS_OMM_VERS = 2.0
CREATION_DATE  = 
ORIGINATOR     = 

OBJECT_NAME    = STARLINK-35366
OBJECT_ID      = 2025-263AD
CENTER_NAME    = EARTH
REF_FRAME      = TEME
TIME_SYSTEM    = UTC
MEAN_ELEMENT_THEORY = SGP/SGP4

EPOCH          = 2025-12-04T04:00:03.000096
MEAN_MOTION    = 15.68546601
ECCENTRICITY   = .0001357
INCLINATION    = 42.9991
RA_OF_ASC_NODE = 175.4962
ARG_OF_PERICENTER = 269.3445
MEAN_ANOMALY   = 260.8255

EPHEMERIS_TYPE = 0
CLASSIFICATION_TYPE = U
NORAD_CAT_ID   = 66512
ELEMENT_SET_NO = 999
REV_AT_EPOCH   = 425
BSTAR          = -.19141E-1
MEAN_MOTION_DOT = -.1970838E-1
MEAN_MOTION_DDOT = 0

CCSDS_OMM_VERS = 2.0
CREATION_DATE  = 
ORIGINATOR     = 

OBJECT_NAME    = STARLINK-35692
OBJECT_ID      = 2025-263AE
CENTER_NAME    = EARTH
REF_FRAME      = TEME
TIME_SYSTEM    = UTC
MEAN_ELEMENT_THEORY = SGP/SGP4

EPOCH          = 2025-12-04T04:00:03.000096
MEAN_MOTION    = 15.68552877
ECCENTRICITY   = .0001406
INCLINATION    = 42.9991
RA_OF_ASC_NODE = 175.5106
ARG_OF_PERICENTER = 274.1946
MEAN_ANOMALY   = 250.2200

EPHEMERIS_TYPE = 0
CLASSIFICATION_TYPE = U
NORAD_CAT_ID   = 66513
ELEMENT_SET_NO = 999
REV_AT_EPOCH   = 425
BSTAR          = -.19216E-1
MEAN_MOTION_DOT = -.1978167E-1
MEAN_MOTION_DDOT = 0

CCSDS_OMM_VERS = 2.0
CREATION_DATE  = 
ORIGINATOR     = 

OBJECT_NAME    = SENTINEL-6B
OBJECT_ID      = 2025-264A
CENTER_NAME    = EARTH
REF_FRAME      = TEME
TIME_SYSTEM    = UTC
MEAN_ELEMENT_THEORY = SGP/SGP4

EPOCH          = 2025-12-03T21:55:25.872096
MEAN_MOTION    = 12.85877574
ECCENTRICITY   = .0011544
INCLINATION    = 66.0390
RA_OF_ASC_NODE = 180.8509
ARG_OF_PERICENTER = 268.5805
MEAN_ANOMALY   = 91.3890

EPHEMERIS_TYPE = 0
CLASSIFICATION_TYPE = U
NORAD_CAT_ID   = 66514
ELEMENT_SET_NO = 999
REV_AT_EPOCH   = 215
BSTAR          = .31328E-3
MEAN_MOTION_DOT = .15E-6
MEAN_MOTION_DDOT = 0

CCSDS_OMM_VERS = 2.0
CREATION_DATE  = 
ORIGINATOR     = 

OBJECT_NAME    = STARLINK-35924
OBJECT_ID      = 2025-265A
CENTER_NAME    = EARTH
REF_FRAME      = TEME
TIME_SYSTEM    = UTC
MEAN_ELEMENT_THEORY = SGP/SGP4

EPOCH          = 2025-12-04T04:00:03.000096
MEAN_MOTION    = 15.75127595
ECCENTRICITY   = .0001325
INCLINATION    = 42.9998
RA_OF_ASC_NODE = 104.7901
ARG_OF_PERICENTER = 267.7683
MEAN_ANOMALY   = 297.5734

EPHEMERIS_TYPE = 0
CLASSIFICATION_TYPE = U
NORAD_CAT_ID   = 66516
ELEMENT_SET_NO = 999
REV_AT_EPOCH   = 359
BSTAR          = -.13937E-1
MEAN_MOTION_DOT = -.1873126E-1
MEAN_MOTION_DDOT = 0

CCSDS_OMM_VERS = 2.0
CREATION_DATE  = 
ORIGINATOR     = 

OBJECT_NAME    = STARLINK-35937
OBJECT_ID      = 2025-265B
CENTER_NAME    = EARTH
REF_FRAME      = TEME
TIME_SYSTEM    = UTC
MEAN_ELEMENT_THEORY = SGP/SGP4

EPOCH          = 2025-12-04T04:00:03.000096
MEAN_MOTION    = 15.75195961
ECCENTRICITY   = .0001252
INCLINATION    = 42.9999
RA_OF_ASC_NODE = 104.7858
ARG_OF_PERICENTER = 257.5172
MEAN_ANOMALY   = 309.6847

EPHEMERIS_TYPE = 0
CLASSIFICATION_TYPE = U
NORAD_CAT_ID   = 66517
ELEMENT_SET_NO = 999
REV_AT_EPOCH   = 361
BSTAR          = -.1455E-1
MEAN_MOTION_DOT = -.1949212E-1
MEAN_MOTION_DDOT = 0

CCSDS_OMM_VERS = 2.0
CREATION_DATE  = 
ORIGINATOR     = 

OBJECT_NAME    = STARLINK-35962
OBJECT_ID      = 2025-265C
CENTER_NAME    = EARTH
REF_FRAME      = TEME
TIME_SYSTEM    = UTC
MEAN_ELEMENT_THEORY = SGP/SGP4

EPOCH          = 2025-12-04T04:00:03.000096
MEAN_MOTION    = 15.75179021
ECCENTRICITY   = .0001508
INCLINATION    = 42.9998
RA_OF_ASC_NODE = 104.7809
ARG_OF_PERICENTER = 265.3146
MEAN_ANOMALY   = 303.8122

EPHEMERIS_TYPE = 0
CLASSIFICATION_TYPE = U
NORAD_CAT_ID   = 66518
ELEMENT_SET_NO = 999
REV_AT_EPOCH   = 361
BSTAR          = -.14411E-1
MEAN_MOTION_DOT = -.1932108E-1
MEAN_MOTION_DDOT = 0

CCSDS_OMM_VERS = 2.0
CREATION_DATE  = 
ORIGINATOR     = 

OBJECT_NAME    = STARLINK-35931
OBJECT_ID      = 2025-265D
CENTER_NAME    = EARTH
REF_FRAME      = TEME
TIME_SYSTEM    = UTC
MEAN_ELEMENT_THEORY = SGP/SGP4

EPOCH          = 2025-12-04T04:00:03.000096
MEAN_MOTION    = 15.75177594
ECCENTRICITY   = .0001458
INCLINATION    = 43.0000
RA_OF_ASC_NODE = 104.7758
ARG_OF_PERICENTER = 263.0210
MEAN_ANOMALY   = 308.0265

EPHEMERIS_TYPE = 0
CLASSIFICATION_TYPE = U
NORAD_CAT_ID   = 66519
ELEMENT_SET_NO = 999
REV_AT_EPOCH   = 361
BSTAR          = -.14392E-1
MEAN_MOTION_DOT = -.1929803E-1
MEAN_MOTION_DDOT = 0

CCSDS_OMM_VERS = 2.0
CREATION_DATE  = 
ORIGINATOR     = 

OBJECT_NAME    = STARLINK-35952
OBJECT_ID      = 2025-265E
CENTER_NAME    = EARTH
REF_FRAME      = TEME
TIME_SYSTEM    = UTC
MEAN_ELEMENT_THEORY = SGP/SGP4

EPOCH          = 2025-12-04T04:00:03.000096
MEAN_MOTION    = 15.75133440
ECCENTRICITY   = .0001379
INCLINATION    = 42.9998
RA_OF_ASC_NODE = 104.7708
ARG_OF_PERICENTER = 274.2213
MEAN_ANOMALY   = 298.7446

EPHEMERIS_TYPE = 0
CLASSIFICATION_TYPE = U
NORAD_CAT_ID   = 66520
ELEMENT_SET_NO = 999
REV_AT_EPOCH   = 361
BSTAR          = -.13897E-1
MEAN_MOTION_DOT = -.1868914E-1
MEAN_MOTION_DDOT = 0

CCSDS_OMM_VERS = 2.0
CREATION_DATE  = 
ORIGINATOR     = 

OBJECT_NAME    = STARLINK-35915
OBJECT_ID      = 2025-265F
CENTER_NAME    = EARTH
REF_FRAME      = TEME
TIME_SYSTEM    = UTC
MEAN_ELEMENT_THEORY = SGP/SGP4

EPOCH          = 2025-12-04T04:00:03.000096
MEAN_MOTION    = 15.75018483
ECCENTRICITY   = .0000939
INCLINATION    = 42.9997
RA_OF_ASC_NODE = 104.7659
ARG_OF_PERICENTER = 254.2745
MEAN_ANOMALY   = 320.6781

EPHEMERIS_TYPE = 0
CLASSIFICATION_TYPE = U
NORAD_CAT_ID   = 66521
ELEMENT_SET_NO = 999
REV_AT_EPOCH   = 361
BSTAR          = -.12857E-1
MEAN_MOTION_DOT = -.1738098E-1
MEAN_MOTION_DDOT = 0

CCSDS_OMM_VERS = 2.0
CREATION_DATE  = 
ORIGINATOR     = 

OBJECT_NAME    = STARLINK-35946
OBJECT_ID      = 2025-265G
CENTER_NAME    = EARTH
REF_FRAME      = TEME
TIME_SYSTEM    = UTC
MEAN_ELEMENT_THEORY = SGP/SGP4

EPOCH          = 2025-12-04T04:00:03.000096
MEAN_MOTION    = 15.75182817
ECCENTRICITY   = .000144
INCLINATION    = 42.9998
RA_OF_ASC_NODE = 104.7612
ARG_OF_PERICENTER = 265.0036
MEAN_ANOMALY   = 311.7903

EPHEMERIS_TYPE = 0
CLASSIFICATION_TYPE = U
NORAD_CAT_ID   = 66522
ELEMENT_SET_NO = 999
REV_AT_EPOCH   = 361
BSTAR          = -.14434E-1
MEAN_MOTION_DOT = -.1934956E-1
MEAN_MOTION_DDOT = 0

CCSDS_OMM_VERS = 2.0
CREATION_DATE  = 
ORIGINATOR     = 

OBJECT_NAME    = STARLINK-35969
OBJECT_ID      = 2025-265H
CENTER_NAME    = EARTH
REF_FRAME      = TEME
TIME_SYSTEM    = UTC
MEAN_ELEMENT_THEORY = SGP/SGP4

EPOCH          = 2025-12-04T04:00:03.000096
MEAN_MOTION    = 15.75124283
ECCENTRICITY   = .0000929
INCLINATION    = 42.9999
RA_OF_ASC_NODE = 104.7564
ARG_OF_PERICENTER = 252.9986
MEAN_ANOMALY   = 325.7105

EPHEMERIS_TYPE = 0
CLASSIFICATION_TYPE = U
NORAD_CAT_ID   = 66523
ELEMENT_SET_NO = 999
REV_AT_EPOCH   = 361
BSTAR          = -.13696E-1
MEAN_MOTION_DOT = -.1844483E-1
MEAN_MOTION_DDOT = 0

