STARLINK-35444          
1 66511U 25263AC  25338.16670139 -.01967949  00000+0 -19111-1 0  9991
2 66511  42.9991 175.5062 0001391 273.0484 253.2891 15.68543981  4254
STARLINK-35366          
1 66512U 25263AD  25338.16670139 -.01970838  00000+0 -19141-1 0  9996
2 66512  42.9991 175.4962 0001357 269.3445 260.8255 15.68546601  4250
STARLINK-35692          
1 66513U 25263AE  25338.16670139 -.01978167  00000+0 -19216-1 0  9993
2 66513  42.9991 175.5106 0001406 274.1946 250.2200 15.68552877  4252
SENTINEL-6B             
1 66514U 25264A   25337.91349389  .00000015  00000+0  31328-3 0  9992
2 66514  66.0390 180.8509 0011544 268.5805  91.3890 12.85877574  2150
STARLINK-35924          
1 66516U 25265A   25338.16670139 -.01873126  00000+0 -13937-1 0  9991
2 66516  42.9998 104.7901 0001325 267.7683 297.5734 15.75127595  3590
STARLINK-35937          
1 66517U 25265B   25338.16670139 -.01949212  00000+0 -14550-1 0  9994
2 66517  42.9999 104.7858 0001252 257.5172 309.6847 15.75195961  3617
STARLINK-35962          
1 66518U 25265C   25338.16670139 -.01932108  00000+0 -14411-1 0  9997
2 66518  42.9998 104.7809 0001508 265.3146 303.8122 15.75179021  3616
STARLINK-35931          
1 66519U 25265D   25338.16670139 -.01929803  00000+0 -14392-1 0  9994
2 66519  43.0000 104.7758 0001458 263.0210 308.0265 15.75177594  3615
STARLINK-35952          
1 66520U 25265E   25338.16670139 -.01868914  00000+0 -13897-1 0  9990
2 66520  42.9998 104.7708 0001379 274.2213 298.7446 15.75133440  3613
STARLINK-35915          
1 66521U 25265F   25338.16670139 -.01738098  00000+0 -12857-1 0  9995
2 66521  42.9997 104.7659 0000939 254.2745 320.6781 15.75018483  3613
STARLINK-35946          
1 66522U 25265G   25338.16670139 -.01934956  00000+0 -14434-1 0  9990
2 66522  42.9998 104.7612 0001440 265.0036 311.7903 15.75182817  3615
STARLINK-35969          
1 66523U 25265H   25338.16670139 -.01844483  00000+0 -13696-1 0  9995
2 66523  42.9999 104.7564 0000929 252.9986 325.7105 15.75124283  3615
